
[
  {
    "CCSDS_OMM_VERS": "2.0",
    "COMMENT": "GENERATED VIA SPACE-TRACK.ORG API",
    "CREATION_DATE": "2023-08-06T06:56:14",
    "ORIGINATOR": "18 SPCS",
    "OBJECT_NAME": "OBJECT A",
    "OBJECT_ID": "2022-087A",
    "CENTER_NAME": "EARTH",
    "REF_FRAME": "TEME",
    "TIME_SYSTEM": "UTC",
    "MEAN_ELEMENT_THEORY": "SGP4",
    "EPOCH": "2023-08-06T04:23:45.744576",
    "MEAN_MOTION": "15.29451076",
    "ECCENTRICITY": "0.00128990",
    "INCLINATION": "97.3648",
    "RA_OF_ASC_NODE": "292.2302",
    "ARG_OF_PERICENTER": "47.2670",
    "MEAN_ANOMALY": "312.9654",
    "EPHEMERIS_TYPE": "0",
    "CLASSIFICATION_TYPE": "U",
    "NORAD_CAT_ID": "53299",
    "ELEMENT_SET_NO": "999",
    "REV_AT_EPOCH": "5713",
    "BSTAR": "0.00047310000000",
    "MEAN_MOTION_DOT": "0.00013476",
    "MEAN_MOTION_DDOT": "0.0000000000000",
    "SEMIMAJOR_AXIS": "6855.589",
    "PERIOD": "94.151",
    "APOAPSIS": "486.297",
    "PERIAPSIS": "468.611",
    "OBJECT_TYPE": "UNKNOWN",
    "RCS_SIZE": "LARGE",
    "COUNTRY_CODE": "PRC",
    "LAUNCH_DATE": "2022-07-27",
    "SITE": "JSC",
    "DECAY_DATE": null,
    "FILE": "3972864",
    "GP_ID": "235483957",
    "TLE_LINE0": "0 OBJECT A",
    "TLE_LINE1": "1 53299U 22087A 23218.18316834 .00013476 00000-0 47310-3 0 9996",
    "TLE_LINE2": "2 53299 97.3648 292.2302 0012899 47.2670 312.9654 15.29451076 57138"
  },
  {
    "CCSDS_OMM_VERS": "2.0",
    "COMMENT": "GENERATED VIA SPACE-TRACK.ORG API",
    "CREATION_DATE": "2023-08-06T14:56:14",
    "ORIGINATOR": "18 SPCS",
    "OBJECT_NAME": "OBJECT A",
    "OBJECT_ID": "2022-087A",
    "CENTER_NAME": "EARTH",
    "REF_FRAME": "TEME",
    "TIME_SYSTEM": "UTC",
    "MEAN_ELEMENT_THEORY": "SGP4",
    "EPOCH": "2023-08-06T10:40:36.555456",
    "MEAN_MOTION": "15.29458868",
    "ECCENTRICITY": "0.00128700",
    "INCLINATION": "97.3647",
    "RA_OF_ASC_NODE": "292.4894",
    "ARG_OF_PERICENTER": "46.3618",
    "MEAN_ANOMALY": "313.8688",
    "EPHEMERIS_TYPE": "0",
    "CLASSIFICATION_TYPE": "U",
    "NORAD_CAT_ID": "53299",
    "ELEMENT_SET_NO": "999",
    "REV_AT_EPOCH": "5717",
    "BSTAR": "0.00047542000000",
    "MEAN_MOTION_DOT": "0.00013546",
    "MEAN_MOTION_DDOT": "0.0000000000000",
    "SEMIMAJOR_AXIS": "6855.566",
    "PERIOD": "94.151",
    "APOAPSIS": "486.254",
    "PERIAPSIS": "468.608",
    "OBJECT_TYPE": "UNKNOWN",
    "RCS_SIZE": "LARGE",
    "COUNTRY_CODE": "PRC",
    "LAUNCH_DATE": "2022-07-27",
    "SITE": "JSC",
    "DECAY_DATE": null,
    "FILE": "3973187",
    "GP_ID": "235491798",
    "TLE_LINE0": "0 OBJECT A",
    "TLE_LINE1": "1 53299U 22087A 23218.44486754 .00013546 00000-0 47542-3 0 9999",
    "TLE_LINE2": "2 53299 97.3647 292.4894 0012870 46.3618 313.8688 15.29458868 57173"
  },
  {
    "CCSDS_OMM_VERS": "2.0",
    "COMMENT": "GENERATED VIA SPACE-TRACK.ORG API",
    "CREATION_DATE": "2023-08-06T22:56:13",
    "ORIGINATOR": "18 SPCS",
    "OBJECT_NAME": "OBJECT A",
    "OBJECT_ID": "2022-087A",
    "CENTER_NAME": "EARTH",
    "REF_FRAME": "TEME",
    "TIME_SYSTEM": "UTC",
    "MEAN_ELEMENT_THEORY": "SGP4",
    "EPOCH": "2023-08-06T18:31:39.917856",
    "MEAN_MOTION": "15.29469354",
    "ECCENTRICITY": "0.00128280",
    "INCLINATION": "97.3647",
    "RA_OF_ASC_NODE": "292.8134",
    "ARG_OF_PERICENTER": "45.2399",
    "MEAN_ANOMALY": "314.9882",
    "EPHEMERIS_TYPE": "0",
    "CLASSIFICATION_TYPE": "U",
    "NORAD_CAT_ID": "53299",
    "ELEMENT_SET_NO": "999",
    "REV_AT_EPOCH": "5722",
    "BSTAR": "0.00049473000000",
    "MEAN_MOTION_DOT": "0.00014105",
    "MEAN_MOTION_DDOT": "0.0000000000000",
    "SEMIMAJOR_AXIS": "6855.535",
    "PERIOD": "94.150",
    "APOAPSIS": "486.194",
    "PERIAPSIS": "468.605",
    "OBJECT_TYPE": "UNKNOWN",
    "RCS_SIZE": "LARGE",
    "COUNTRY_CODE": "PRC",
    "LAUNCH_DATE": "2022-07-27",
    "SITE": "JSC",
    "DECAY_DATE": null,
    "FILE": "3973540",
    "GP_ID": "235499897",
    "TLE_LINE0": "0 OBJECT A",
    "TLE_LINE1": "1 53299U 22087A 23218.77198979 .00014105 00000-0 49473-3 0 9991",
    "TLE_LINE2": "2 53299 97.3647 292.8134 0012828 45.2399 314.9882 15.29469354 57227"
  },
  {
    "CCSDS_OMM_VERS": "2.0",
    "COMMENT": "GENERATED VIA SPACE-TRACK.ORG API",
    "CREATION_DATE": "2023-08-07T06:56:14",
    "ORIGINATOR": "18 SPCS",
    "OBJECT_NAME": "OBJECT A",
    "OBJECT_ID": "2022-087A",
    "CENTER_NAME": "EARTH",
    "REF_FRAME": "TEME",
    "TIME_SYSTEM": "UTC",
    "MEAN_ELEMENT_THEORY": "SGP4",
    "EPOCH": "2023-08-07T03:56:55.805856",
    "MEAN_MOTION": "15.29476642",
    "ECCENTRICITY": "0.00127760",
    "INCLINATION": "97.3647",
    "RA_OF_ASC_NODE": "293.2022",
    "ARG_OF_PERICENTER": "43.9473",
    "MEAN_ANOMALY": "316.2781",
    "EPHEMERIS_TYPE": "0",
    "CLASSIFICATION_TYPE": "U",
    "NORAD_CAT_ID": "53299",
    "ELEMENT_SET_NO": "999",
    "REV_AT_EPOCH": "5728",
    "BSTAR": "0.00042116000000",
    "MEAN_MOTION_DOT": "0.00011995",
    "MEAN_MOTION_DDOT": "0.0000000000000",
    "SEMIMAJOR_AXIS": "6855.513",
    "PERIOD": "94.150",
    "APOAPSIS": "486.136",
    "PERIAPSIS": "468.619",
    "OBJECT_TYPE": "UNKNOWN",
    "RCS_SIZE": "LARGE",
    "COUNTRY_CODE": "PRC",
    "LAUNCH_DATE": "2022-07-27",
    "SITE": "JSC",
    "DECAY_DATE": null,
    "FILE": "3973831",
    "GP_ID": "235507617",
    "TLE_LINE0": "0 OBJECT A",
    "TLE_LINE1": "1 53299U 22087A 23219.16453479 .00011995 00000-0 42116-3 0 9995",
    "TLE_LINE2": "2 53299 97.3647 293.2022 0012776 43.9473 316.2781 15.29476642 57285"
  },
  {
    "CCSDS_OMM_VERS": "2.0",
    "COMMENT": "GENERATED VIA SPACE-TRACK.ORG API",
    "CREATION_DATE": "2023-08-07T14:46:15",
    "ORIGINATOR": "18 SPCS",
    "OBJECT_NAME": "OBJECT A",
    "OBJECT_ID": "2022-087A",
    "CENTER_NAME": "EARTH",
    "REF_FRAME": "TEME",
    "TIME_SYSTEM": "UTC",
    "MEAN_ELEMENT_THEORY": "SGP4",
    "EPOCH": "2023-08-07T10:13:46.261632",
    "MEAN_MOTION": "15.29483712",
    "ECCENTRICITY": "0.00127510",
    "INCLINATION": "97.3647",
    "RA_OF_ASC_NODE": "293.4614",
    "ARG_OF_PERICENTER": "43.0415",
    "MEAN_ANOMALY": "317.1820",
    "EPHEMERIS_TYPE": "0",
    "CLASSIFICATION_TYPE": "U",
    "NORAD_CAT_ID": "53299",
    "ELEMENT_SET_NO": "999",
    "REV_AT_EPOCH": "5732",
    "BSTAR": "0.00045267000000",
    "MEAN_MOTION_DOT": "0.00012902",
    "MEAN_MOTION_DDOT": "0.0000000000000",
    "SEMIMAJOR_AXIS": "6855.492",
    "PERIOD": "94.149",
    "APOAPSIS": "486.098",
    "PERIAPSIS": "468.615",
    "OBJECT_TYPE": "UNKNOWN",
    "RCS_SIZE": "LARGE",
    "COUNTRY_CODE": "PRC",
    "LAUNCH_DATE": "2022-07-27",
    "SITE": "JSC",
    "DECAY_DATE": null,
    "FILE": "3974074",
    "GP_ID": "235513367",
    "TLE_LINE0": "0 OBJECT A",
    "TLE_LINE1": "1 53299U 22087A 23219.42622988 .00012902 00000-0 45267-3 0 9996",
    "TLE_LINE2": "2 53299 97.3647 293.4614 0012751 43.0415 317.1820 15.29483712 57329"
  },
  {
    "CCSDS_OMM_VERS": "2.0",
    "COMMENT": "GENERATED VIA SPACE-TRACK.ORG API",
    "CREATION_DATE": "2023-08-07T22:56:14",
    "ORIGINATOR": "18 SPCS",
    "OBJECT_NAME": "OBJECT A",
    "OBJECT_ID": "2022-087A",
    "CENTER_NAME": "EARTH",
    "REF_FRAME": "TEME",
    "TIME_SYSTEM": "UTC",
    "MEAN_ELEMENT_THEORY": "SGP4",
    "EPOCH": "2023-08-07T19:39:01.784160",
    "MEAN_MOTION": "15.29493584",
    "ECCENTRICITY": "0.00127060",
    "INCLINATION": "97.3647",
    "RA_OF_ASC_NODE": "293.8501",
    "ARG_OF_PERICENTER": "41.7628",
    "MEAN_ANOMALY": "318.4580",
    "EPHEMERIS_TYPE": "0",
    "CLASSIFICATION_TYPE": "U",
    "NORAD_CAT_ID": "53299",
    "ELEMENT_SET_NO": "999",
    "REV_AT_EPOCH": "5738",
    "BSTAR": "0.00045421000000",
    "MEAN_MOTION_DOT": "0.00012950",
    "MEAN_MOTION_DDOT": "0.0000000000000",
    "SEMIMAJOR_AXIS": "6855.462",
    "PERIOD": "94.149",
    "APOAPSIS": "486.038",
    "PERIAPSIS": "468.617",
    "OBJECT_TYPE": "UNKNOWN",
    "RCS_SIZE": "LARGE",
    "COUNTRY_CODE": "PRC",
    "LAUNCH_DATE": "2022-07-27",
    "SITE": "JSC",
    "DECAY_DATE": null,
    "FILE": "3974394",
    "GP_ID": "235521101",
    "TLE_LINE0": "0 OBJECT A",
    "TLE_LINE1": "1 53299U 22087A 23219.81877065 .00012950 00000-0 45421-3 0 9992",
    "TLE_LINE2": "2 53299 97.3647 293.8501 0012706 41.7628 318.4580 15.29493584 57380"
  },
  {
    "CCSDS_OMM_VERS": "2.0",
    "COMMENT": "GENERATED VIA SPACE-TRACK.ORG API",
    "CREATION_DATE": "2023-08-08T06:56:14",
    "ORIGINATOR": "18 SPCS",
    "OBJECT_NAME": "OBJECT A",
    "OBJECT_ID": "2022-087A",
    "CENTER_NAME": "EARTH",
    "REF_FRAME": "TEME",
    "TIME_SYSTEM": "UTC",
    "MEAN_ELEMENT_THEORY": "SGP4",
    "EPOCH": "2023-08-08T01:55:51.972960",
    "MEAN_MOTION": "15.29502528",
    "ECCENTRICITY": "0.00126740",
    "INCLINATION": "97.3647",
    "RA_OF_ASC_NODE": "294.1093",
    "ARG_OF_PERICENTER": "40.9128",
    "MEAN_ANOMALY": "319.3061",
    "EPHEMERIS_TYPE": "0",
    "CLASSIFICATION_TYPE": "U",
    "NORAD_CAT_ID": "53299",
    "ELEMENT_SET_NO": "999",
    "REV_AT_EPOCH": "5742",
    "BSTAR": "0.00050945000000",
    "MEAN_MOTION_DOT": "0.00014541",
    "MEAN_MOTION_DDOT": "0.0000000000000",
    "SEMIMAJOR_AXIS": "6855.435",
    "PERIOD": "94.148",
    "APOAPSIS": "485.989",
    "PERIAPSIS": "468.612",
    "OBJECT_TYPE": "UNKNOWN",
    "RCS_SIZE": "LARGE",
    "COUNTRY_CODE": "PRC",
    "LAUNCH_DATE": "2022-07-27",
    "SITE": "JSC",
    "DECAY_DATE": null,
    "FILE": "3974698",
    "GP_ID": "235527687",
    "TLE_LINE0": "0 OBJECT A",
    "TLE_LINE1": "1 53299U 22087A 23220.08046265 .00014541 00000-0 50945-3 0 9998",
    "TLE_LINE2": "2 53299 97.3647 294.1093 0012674 40.9128 319.3061 15.29502528 57428"
  }
]